STARLINK-37158          
1 68343U 26059Y   26096.23935096  .00246724  00000+0  12153-2 0  9994
2 68343  53.1588 224.6201 0001404  10.8897 349.2156 15.80923813  2333
STARLINK-36380          
1 68344U 26059Z   26096.24085064  .00261907  00000+0  12878-2 0  9991
2 68344  53.1586 224.6306 0001466   0.5906 359.5118 15.80921386  2338
STARLINK-37214          
1 68345U 26059AA  26096.23784867  .00254329  00000+0  12512-2 0  9993
2 68345  53.1589 224.6100 0001425 359.8803   0.2219 15.80931268  2337
STARLINK-37169          
1 68346U 26059AB  26096.17388049  .00386875  00000+0  18664-2 0  9995
2 68346  53.1589 224.9215 0000123   5.3410 354.7614 15.80995494  2325
STARLINK-37136          
1 68347U 26059AC  26096.17312942  .00377060  00000+0  18218-2 0  9996
2 68347  53.1586 224.9164 0000689 350.2845   9.8165 15.80990092  2325
STARLINK-37182          
1 68348U 26059AD  26096.23860322  .00283304  00000+0  13883-2 0  9994
2 68348  53.1591 224.6151 0000940  12.2694 347.8352 15.80935695  2334
STARLINK-37183          
1 68349U 26059AE  26096.17237968  .00353972  00000+0  17164-2 0  9997
2 68349  53.1591 224.9116 0000573 251.0240 109.0720 15.80972876  2329
CENTISPACE-1 OBJECT B   
1 68351U 26060B   26094.78445363  .00002174  00000+0  35156-3 0  9994
2 68351  54.9820 335.1667 0013530 326.8800  33.1351 14.74944202  1940
CENTISPACE-1 OBJECT C   
1 68352U 26060C   26095.73164918  .00000086  00000+0  43653-4 0  9997
2 68352  54.9852 331.2905 0012134 338.2549  21.7934 14.74891649  2086
CENTISPACE-1 OBJECT D   
1 68353U 26060D   26095.73166100  .00000086  00000+0  43679-4 0  9991
2 68353  54.9822 331.2869 0012407 338.9865  21.0623 14.74881966  2083
CENTISPACE-1 OBJECT E   
1 68354U 26060E   26096.13752589  .00000063  00000+0  40255-4 0  9991
2 68354  54.9777 329.6169 0012816 339.4949  20.5534 14.74860046  2148
CENTISPACE-1 OBJECT F   
1 68355U 26060F   26095.79860700  .00000084  00000+0  43343-4 0  9992
2 68355  54.9777 330.9993 0012870 336.1698  23.8704 14.74955235  2098
CENTISPACE-1 OBJECT G   
1 68356U 26060G   26096.13642337  .00000082  00000+0  42944-4 0  9990
2 68356  54.9875 329.6237 0013788 338.1361  21.9048 14.75168430  2142
CENTISPACE-1 OBJECT H   
1 68357U 26060H   26092.40903992  .00000123  00000+0  48805-4 0  9992
2 68357  54.9838 344.8287 0013821 328.1926  31.8237 14.75277593  1599
CENTISPACE-1 OBJECT J   
1 68358U 26060J   26096.13550988  .00000063  00000+0  40171-4 0  9991
2 68358  54.9824 329.6140 0014482 337.9669  22.0706 14.75161989  2146
