[{"OBJECT_NAME":"STARLINK-37158","OBJECT_ID":"2026-059Y","EPOCH":"2026-04-06T05:44:39.922944","MEAN_MOTION":15.80923813,"ECCENTRICITY":0.00014047,"INCLINATION":53.1588,"RA_OF_ASC_NODE":224.6201,"ARG_OF_PERICENTER":10.8897,"MEAN_ANOMALY":349.2156,"EPHEMERIS_TYPE":0,"CLASSIFICATION_TYPE":"U","NORAD_CAT_ID":68343,"ELEMENT_SET_NO":999,"REV_AT_EPOCH":233,"BSTAR":0.0012153333,"MEAN_MOTION_DOT":0.00246724,"MEAN_MOTION_DDOT":0},{"OBJECT_NAME":"STARLINK-36380","OBJECT_ID":"2026-059Z","EPOCH":"2026-04-06T05:46:49.495296","MEAN_MOTION":15.80921386,"ECCENTRICITY":0.00014665,"INCLINATION":53.1586,"RA_OF_ASC_NODE":224.6306,"ARG_OF_PERICENTER":0.5906,"MEAN_ANOMALY":359.5118,"EPHEMERIS_TYPE":0,"CLASSIFICATION_TYPE":"U","NORAD_CAT_ID":68344,"ELEMENT_SET_NO":999,"REV_AT_EPOCH":233,"BSTAR":0.0012877723,"MEAN_MOTION_DOT":0.00261907,"MEAN_MOTION_DDOT":0},{"OBJECT_NAME":"STARLINK-37214","OBJECT_ID":"2026-059AA","EPOCH":"2026-04-06T05:42:30.125088","MEAN_MOTION":15.80931268,"ECCENTRICITY":0.00014259,"INCLINATION":53.1589,"RA_OF_ASC_NODE":224.61,"ARG_OF_PERICENTER":359.8803,"MEAN_ANOMALY":0.2219,"EPHEMERIS_TYPE":0,"CLASSIFICATION_TYPE":"U","NORAD_CAT_ID":68345,"ELEMENT_SET_NO":999,"REV_AT_EPOCH":233,"BSTAR":0.0012511519,"MEAN_MOTION_DOT":0.00254329,"MEAN_MOTION_DDOT":0},{"OBJECT_NAME":"STARLINK-37169","OBJECT_ID":"2026-059AB","EPOCH":"2026-04-06T04:10:23.274336","MEAN_MOTION":15.80995494,"ECCENTRICITY":1.237e-5,"INCLINATION":53.1589,"RA_OF_ASC_NODE":224.9215,"ARG_OF_PERICENTER":5.341,"MEAN_ANOMALY":354.7614,"EPHEMERIS_TYPE":0,"CLASSIFICATION_TYPE":"U","NORAD_CAT_ID":68346,"ELEMENT_SET_NO":999,"REV_AT_EPOCH":232,"BSTAR":0.0018663795,"MEAN_MOTION_DOT":0.00386875,"MEAN_MOTION_DDOT":0},{"OBJECT_NAME":"STARLINK-37136","OBJECT_ID":"2026-059AC","EPOCH":"2026-04-06T04:09:18.381888","MEAN_MOTION":15.80990092,"ECCENTRICITY":6.892e-5,"INCLINATION":53.1586,"RA_OF_ASC_NODE":224.9164,"ARG_OF_PERICENTER":350.2845,"MEAN_ANOMALY":9.8165,"EPHEMERIS_TYPE":0,"CLASSIFICATION_TYPE":"U","NORAD_CAT_ID":68347,"ELEMENT_SET_NO":999,"REV_AT_EPOCH":232,"BSTAR":0.0018217915,"MEAN_MOTION_DOT":0.0037706,"MEAN_MOTION_DDOT":0},{"OBJECT_NAME":"STARLINK-37182","OBJECT_ID":"2026-059AD","EPOCH":"2026-04-06T05:43:35.318208","MEAN_MOTION":15.80935695,"ECCENTRICITY":9.405e-5,"INCLINATION":53.1591,"RA_OF_ASC_NODE":224.6151,"ARG_OF_PERICENTER":12.2694,"MEAN_ANOMALY":347.8352,"EPHEMERIS_TYPE":0,"CLASSIFICATION_TYPE":"U","NORAD_CAT_ID":68348,"ELEMENT_SET_NO":999,"REV_AT_EPOCH":233,"BSTAR":0.0013882899,"MEAN_MOTION_DOT":0.00283304,"MEAN_MOTION_DDOT":0},{"OBJECT_NAME":"STARLINK-37183","OBJECT_ID":"2026-059AE","EPOCH":"2026-04-06T04:08:13.604352","MEAN_MOTION":15.80972876,"ECCENTRICITY":5.73e-5,"INCLINATION":53.1591,"RA_OF_ASC_NODE":224.9116,"ARG_OF_PERICENTER":251.024,"MEAN_ANOMALY":109.072,"EPHEMERIS_TYPE":0,"CLASSIFICATION_TYPE":"U","NORAD_CAT_ID":68349,"ELEMENT_SET_NO":999,"REV_AT_EPOCH":232,"BSTAR":0.0017164358,"MEAN_MOTION_DOT":0.00353972,"MEAN_MOTION_DDOT":0},{"OBJECT_NAME":"CENTISPACE-1 OBJECT B","OBJECT_ID":"2026-060B","EPOCH":"2026-04-04T18:49:36.793632","MEAN_MOTION":14.74944202,"ECCENTRICITY":0.00135305,"INCLINATION":54.982,"RA_OF_ASC_NODE":335.1667,"ARG_OF_PERICENTER":326.88,"MEAN_ANOMALY":33.1351,"EPHEMERIS_TYPE":0,"CLASSIFICATION_TYPE":"U","NORAD_CAT_ID":68351,"ELEMENT_SET_NO":999,"REV_AT_EPOCH":194,"BSTAR":0.00035156248,"MEAN_MOTION_DOT":2.174e-5,"MEAN_MOTION_DDOT":0},{"OBJECT_NAME":"CENTISPACE-1 OBJECT C","OBJECT_ID":"2026-060C","EPOCH":"2026-04-05T17:33:34.489152","MEAN_MOTION":14.74891649,"ECCENTRICITY":0.00121348,"INCLINATION":54.9852,"RA_OF_ASC_NODE":331.2905,"ARG_OF_PERICENTER":338.2549,"MEAN_ANOMALY":21.7934,"EPHEMERIS_TYPE":0,"CLASSIFICATION_TYPE":"U","NORAD_CAT_ID":68352,"ELEMENT_SET_NO":999,"REV_AT_EPOCH":208,"BSTAR":4.3653263e-5,"MEAN_MOTION_DOT":8.6e-7,"MEAN_MOTION_DDOT":0},{"OBJECT_NAME":"CENTISPACE-1 OBJECT D","OBJECT_ID":"2026-060D","EPOCH":"2026-04-05T17:33:35.510400","MEAN_MOTION":14.74881966,"ECCENTRICITY":0.00124072,"INCLINATION":54.9822,"RA_OF_ASC_NODE":331.2869,"ARG_OF_PERICENTER":338.9865,"MEAN_ANOMALY":21.0623,"EPHEMERIS_TYPE":0,"CLASSIFICATION_TYPE":"U","NORAD_CAT_ID":68353,"ELEMENT_SET_NO":999,"REV_AT_EPOCH":208,"BSTAR":4.367931e-5,"MEAN_MOTION_DOT":8.6e-7,"MEAN_MOTION_DDOT":0},{"OBJECT_NAME":"CENTISPACE-1 OBJECT E","OBJECT_ID":"2026-060E","EPOCH":"2026-04-06T03:18:02.236896","MEAN_MOTION":14.74860046,"ECCENTRICITY":0.00128168,"INCLINATION":54.9777,"RA_OF_ASC_NODE":329.6169,"ARG_OF_PERICENTER":339.4949,"MEAN_ANOMALY":20.5534,"EPHEMERIS_TYPE":0,"CLASSIFICATION_TYPE":"U","NORAD_CAT_ID":68354,"ELEMENT_SET_NO":999,"REV_AT_EPOCH":214,"BSTAR":4.0254721e-5,"MEAN_MOTION_DOT":6.3e-7,"MEAN_MOTION_DDOT":0},{"OBJECT_NAME":"CENTISPACE-1 OBJECT F","OBJECT_ID":"2026-060F","EPOCH":"2026-04-05T19:09:59.644800","MEAN_MOTION":14.74955235,"ECCENTRICITY":0.00128704,"INCLINATION":54.9777,"RA_OF_ASC_NODE":330.9993,"ARG_OF_PERICENTER":336.1698,"MEAN_ANOMALY":23.8704,"EPHEMERIS_TYPE":0,"CLASSIFICATION_TYPE":"U","NORAD_CAT_ID":68355,"ELEMENT_SET_NO":999,"REV_AT_EPOCH":209,"BSTAR":4.3343164e-5,"MEAN_MOTION_DOT":8.4e-7,"MEAN_MOTION_DDOT":0},{"OBJECT_NAME":"CENTISPACE-1 OBJECT G","OBJECT_ID":"2026-060G","EPOCH":"2026-04-06T03:16:26.979168","MEAN_MOTION":14.7516843,"ECCENTRICITY":0.00137886,"INCLINATION":54.9875,"RA_OF_ASC_NODE":329.6237,"ARG_OF_PERICENTER":338.1361,"MEAN_ANOMALY":21.9048,"EPHEMERIS_TYPE":0,"CLASSIFICATION_TYPE":"U","NORAD_CAT_ID":68356,"ELEMENT_SET_NO":999,"REV_AT_EPOCH":214,"BSTAR":4.2943575e-5,"MEAN_MOTION_DOT":8.2e-7,"MEAN_MOTION_DDOT":0},{"OBJECT_NAME":"CENTISPACE-1 OBJECT H","OBJECT_ID":"2026-060H","EPOCH":"2026-04-02T09:49:01.049088","MEAN_MOTION":14.75277593,"ECCENTRICITY":0.00138214,"INCLINATION":54.9838,"RA_OF_ASC_NODE":344.8287,"ARG_OF_PERICENTER":328.1926,"MEAN_ANOMALY":31.8237,"EPHEMERIS_TYPE":0,"CLASSIFICATION_TYPE":"U","NORAD_CAT_ID":68357,"ELEMENT_SET_NO":999,"REV_AT_EPOCH":159,"BSTAR":4.8805088e-5,"MEAN_MOTION_DOT":1.23e-6,"MEAN_MOTION_DDOT":0},{"OBJECT_NAME":"CENTISPACE-1 OBJECT J","OBJECT_ID":"2026-060J","EPOCH":"2026-04-06T03:15:08.053632","MEAN_MOTION":14.75161989,"ECCENTRICITY":0.00144826,"INCLINATION":54.9824,"RA_OF_ASC_NODE":329.614,"ARG_OF_PERICENTER":337.9669,"MEAN_ANOMALY":22.0706,"EPHEMERIS_TYPE":0,"CLASSIFICATION_TYPE":"U","NORAD_CAT_ID":68358,"ELEMENT_SET_NO":999,"REV_AT_EPOCH":214,"BSTAR":4.0170978e-5,"MEAN_MOTION_DOT":6.3e-7,"MEAN_MOTION_DDOT":0}]
